{
"type": "FeatureCollection",
"name": "malawi_markets",
"crs": { "type": "name", "properties": { "name": "urn:ogc:def:crs:OGC:1.3:CRS84" } },
"features": [
{ "type": "Feature", "properties": { "region": "Central Region", "district": "Dedza", "market": "Mtakataka", "latitude": -14.23, "longitude": 34.52, "num_commodities": 20, "total_records": 158, "total_spikes": 6, "critical_count": 0, "avg_price": 3599.0915189873417, "latest_date": "2026-03-15T00:00:00", "spike_rate_pct": 3.8 }, "geometry": { "type": "Point", "coordinates": [ 34.52, -14.23 ] } },
{ "type": "Feature", "properties": { "region": "Central Region", "district": "Dedza", "market": "Nsikawanjala", "latitude": -14.39, "longitude": 34.34, "num_commodities": 21, "total_records": 338, "total_spikes": 29, "critical_count": 2, "avg_price": 2368.61, "latest_date": "2026-03-15T00:00:00", "spike_rate_pct": 8.58 }, "geometry": { "type": "Point", "coordinates": [ 34.34, -14.39 ] } },
{ "type": "Feature", "properties": { "region": "Central Region", "district": "Dedza", "market": "Ntakataka", "latitude": -14.22, "longitude": 34.51, "num_commodities": 13, "total_records": 175, "total_spikes": 22, "critical_count": 1, "avg_price": 1081.910342857143, "latest_date": "2025-03-15T00:00:00", "spike_rate_pct": 12.57 }, "geometry": { "type": "Point", "coordinates": [ 34.51, -14.22 ] } },
{ "type": "Feature", "properties": { "region": "Central Region", "district": "Dedza", "market": "Thete", "latitude": -14.3, "longitude": 34.08, "num_commodities": 4, "total_records": 4, "total_spikes": 0, "critical_count": 0, "avg_price": 476.0, "latest_date": "2020-04-15T00:00:00", "spike_rate_pct": 0.0 }, "geometry": { "type": "Point", "coordinates": [ 34.08, -14.3 ] } },
{ "type": "Feature", "properties": { "region": "Central Region", "district": "Dowa", "market": "Dowa Boma", "latitude": -13.68, "longitude": 33.98, "num_commodities": 19, "total_records": 176, "total_spikes": 9, "critical_count": 1, "avg_price": 2680.525, "latest_date": "2025-10-15T00:00:00", "spike_rate_pct": 5.11 }, "geometry": { "type": "Point", "coordinates": [ 33.98, -13.68 ] } },
{ "type": "Feature", "properties": { "region": "Central Region", "district": "Dowa", "market": "Dzaleka", "latitude": -13.66, "longitude": 33.87, "num_commodities": 21, "total_records": 340, "total_spikes": 31, "critical_count": 2, "avg_price": 2698.8253529411763, "latest_date": "2026-03-15T00:00:00", "spike_rate_pct": 9.12 }, "geometry": { "type": "Point", "coordinates": [ 33.87, -13.66 ] } },
{ "type": "Feature", "properties": { "region": "Central Region", "district": "Dowa", "market": "Dzaleka (inside Camp)", "latitude": -13.66, "longitude": 33.87, "num_commodities": 20, "total_records": 267, "total_spikes": 19, "critical_count": 0, "avg_price": 3106.0402996254684, "latest_date": "2026-04-15T00:00:00", "spike_rate_pct": 7.12 }, "geometry": { "type": "Point", "coordinates": [ 33.87, -13.66 ] } },
{ "type": "Feature", "properties": { "region": "Central Region", "district": "Dowa", "market": "Madisi", "latitude": -13.42, "longitude": 33.6, "num_commodities": 4, "total_records": 4, "total_spikes": 0, "critical_count": 0, "avg_price": 550.4625, "latest_date": "2020-04-15T00:00:00", "spike_rate_pct": 0.0 }, "geometry": { "type": "Point", "coordinates": [ 33.6, -13.42 ] } },
{ "type": "Feature", "properties": { "region": "Central Region", "district": "Dowa", "market": "Mponela", "latitude": -13.52, "longitude": 33.72, "num_commodities": 21, "total_records": 320, "total_spikes": 29, "critical_count": 3, "avg_price": 2709.5683437500002, "latest_date": "2026-03-15T00:00:00", "spike_rate_pct": 9.06 }, "geometry": { "type": "Point", "coordinates": [ 33.72, -13.52 ] } },
{ "type": "Feature", "properties": { "region": "Central Region", "district": "Dowa", "market": "Nambuma", "latitude": -13.7, "longitude": 33.6, "num_commodities": 20, "total_records": 277, "total_spikes": 21, "critical_count": 1, "avg_price": 3049.6131046931405, "latest_date": "2026-03-15T00:00:00", "spike_rate_pct": 7.58 }, "geometry": { "type": "Point", "coordinates": [ 33.6, -13.7 ] } },
{ "type": "Feature", "properties": { "region": "Central Region", "district": "Dowa", "market": "Nsungwi", "latitude": -13.53, "longitude": 33.46, "num_commodities": 21, "total_records": 373, "total_spikes": 38, "critical_count": 2, "avg_price": 2588.4759785522788, "latest_date": "2026-03-15T00:00:00", "spike_rate_pct": 10.19 }, "geometry": { "type": "Point", "coordinates": [ 33.46, -13.53 ] } },
{ "type": "Feature", "properties": { "region": "Central Region", "district": "Kasungu", "market": "Chatoloma", "latitude": -13.32, "longitude": 33.48, "num_commodities": 4, "total_records": 4, "total_spikes": 0, "critical_count": 0, "avg_price": 585.475, "latest_date": "2020-04-15T00:00:00", "spike_rate_pct": 0.0 }, "geometry": { "type": "Point", "coordinates": [ 33.48, -13.32 ] } },
{ "type": "Feature", "properties": { "region": "Central Region", "district": "Kasungu", "market": "Kasungu Boma", "latitude": -13.03, "longitude": 33.48, "num_commodities": 21, "total_records": 300, "total_spikes": 27, "critical_count": 3, "avg_price": 2617.5492666666669, "latest_date": "2026-03-15T00:00:00", "spike_rate_pct": 9.0 }, "geometry": { "type": "Point", "coordinates": [ 33.48, -13.03 ] } },
{ "type": "Feature", "properties": { "region": "Central Region", "district": "Kasungu", "market": "Nkhamenya", "latitude": -12.57, "longitude": 33.52, "num_commodities": 21, "total_records": 285, "total_spikes": 31, "critical_count": 2, "avg_price": 2584.0851578947368, "latest_date": "2026-03-15T00:00:00", "spike_rate_pct": 10.88 }, "geometry": { "type": "Point", "coordinates": [ 33.52, -12.57 ] } },
{ "type": "Feature", "properties": { "region": "Central Region", "district": "Lilongwe", "market": "Area 23", "latitude": -14.03, "longitude": 33.49, "num_commodities": 21, "total_records": 172, "total_spikes": 13, "critical_count": 3, "avg_price": 2819.4972674418605, "latest_date": "2026-04-15T00:00:00", "spike_rate_pct": 7.56 }, "geometry": { "type": "Point", "coordinates": [ 33.49, -14.03 ] } },
{ "type": "Feature", "properties": { "region": "Central Region", "district": "Lilongwe", "market": "Kamwendo", "latitude": -13.82, "longitude": 34.02, "num_commodities": 20, "total_records": 259, "total_spikes": 26, "critical_count": 3, "avg_price": 2441.449305019305, "latest_date": "2026-03-15T00:00:00", "spike_rate_pct": 10.04 }, "geometry": { "type": "Point", "coordinates": [ 34.02, -13.82 ] } },
{ "type": "Feature", "properties": { "region": "Central Region", "district": "Lilongwe", "market": "Mitundu", "latitude": -14.25, "longitude": 33.77, "num_commodities": 4, "total_records": 4, "total_spikes": 0, "critical_count": 0, "avg_price": 532.115, "latest_date": "2020-04-15T00:00:00", "spike_rate_pct": 0.0 }, "geometry": { "type": "Point", "coordinates": [ 33.77, -14.25 ] } },
{ "type": "Feature", "properties": { "region": "Central Region", "district": "Lilongwe City", "market": "Lilongwe", "latitude": -13.98, "longitude": 33.78, "num_commodities": 4, "total_records": 58, "total_spikes": 1, "critical_count": 0, "avg_price": 551.18672413793104, "latest_date": "2022-05-15T00:00:00", "spike_rate_pct": 1.72 }, "geometry": { "type": "Point", "coordinates": [ 33.78, -13.98 ] } },
{ "type": "Feature", "properties": { "region": "Central Region", "district": "Lilongwe City", "market": "Songwe", "latitude": -13.96, "longitude": 33.78, "num_commodities": 19, "total_records": 174, "total_spikes": 13, "critical_count": 0, "avg_price": 3433.187471264368, "latest_date": "2026-03-15T00:00:00", "spike_rate_pct": 7.47 }, "geometry": { "type": "Point", "coordinates": [ 33.78, -13.96 ] } },
{ "type": "Feature", "properties": { "region": "Central Region", "district": "Mchinji", "market": "Mchinji Boma", "latitude": -13.8, "longitude": 32.9, "num_commodities": 20, "total_records": 294, "total_spikes": 31, "critical_count": 2, "avg_price": 2626.9536734693879, "latest_date": "2026-03-15T00:00:00", "spike_rate_pct": 10.54 }, "geometry": { "type": "Point", "coordinates": [ 32.9, -13.8 ] } },
{ "type": "Feature", "properties": { "region": "Central Region", "district": "Mchinji", "market": "Mkanda", "latitude": -13.52, "longitude": 32.95, "num_commodities": 19, "total_records": 222, "total_spikes": 8, "critical_count": 1, "avg_price": 3363.2970720720718, "latest_date": "2026-03-15T00:00:00", "spike_rate_pct": 3.6 }, "geometry": { "type": "Point", "coordinates": [ 32.95, -13.52 ] } },
{ "type": "Feature", "properties": { "region": "Central Region", "district": "Mchinji", "market": "Waliranji", "latitude": -13.98, "longitude": 33.28, "num_commodities": 21, "total_records": 299, "total_spikes": 30, "critical_count": 3, "avg_price": 2498.1209698996659, "latest_date": "2026-03-15T00:00:00", "spike_rate_pct": 10.03 }, "geometry": { "type": "Point", "coordinates": [ 33.28, -13.98 ] } },
{ "type": "Feature", "properties": { "region": "Central Region", "district": "Nkhotakota", "market": "Dwangwa", "latitude": -12.57, "longitude": 34.15, "num_commodities": 20, "total_records": 146, "total_spikes": 4, "critical_count": 0, "avg_price": 3643.3779452054796, "latest_date": "2026-04-15T00:00:00", "spike_rate_pct": 2.74 }, "geometry": { "type": "Point", "coordinates": [ 34.15, -12.57 ] } },
{ "type": "Feature", "properties": { "region": "Central Region", "district": "Nkhotakota", "market": "Mwansambo", "latitude": -13.3, "longitude": 34.12, "num_commodities": 4, "total_records": 4, "total_spikes": 0, "critical_count": 0, "avg_price": 496.77, "latest_date": "2020-04-15T00:00:00", "spike_rate_pct": 0.0 }, "geometry": { "type": "Point", "coordinates": [ 34.12, -13.3 ] } },
{ "type": "Feature", "properties": { "region": "Central Region", "district": "Nkhotakota", "market": "Nkhotakota Boma", "latitude": -12.92, "longitude": 34.3, "num_commodities": 21, "total_records": 262, "total_spikes": 24, "critical_count": 3, "avg_price": 2288.5087786259542, "latest_date": "2026-03-15T00:00:00", "spike_rate_pct": 9.16 }, "geometry": { "type": "Point", "coordinates": [ 34.3, -12.92 ] } },
{ "type": "Feature", "properties": { "region": "Central Region", "district": "Ntcheu", "market": "Chimbiya", "latitude": -15.08, "longitude": 34.58, "num_commodities": 21, "total_records": 364, "total_spikes": 41, "critical_count": 2, "avg_price": 2446.1749725274722, "latest_date": "2026-04-15T00:00:00", "spike_rate_pct": 11.26 }, "geometry": { "type": "Point", "coordinates": [ 34.58, -15.08 ] } },
{ "type": "Feature", "properties": { "region": "Central Region", "district": "Ntcheu", "market": "Golomoti", "latitude": -14.43, "longitude": 34.59, "num_commodities": 21, "total_records": 350, "total_spikes": 34, "critical_count": 1, "avg_price": 2332.9555142857143, "latest_date": "2026-03-15T00:00:00", "spike_rate_pct": 9.71 }, "geometry": { "type": "Point", "coordinates": [ 34.59, -14.43 ] } },
{ "type": "Feature", "properties": { "region": "Central Region", "district": "Ntcheu", "market": "Kambilonje", "latitude": -15.0, "longitude": 34.67, "num_commodities": 19, "total_records": 205, "total_spikes": 19, "critical_count": 3, "avg_price": 2619.1343414634148, "latest_date": "2026-03-15T00:00:00", "spike_rate_pct": 9.27 }, "geometry": { "type": "Point", "coordinates": [ 34.67, -15.0 ] } },
{ "type": "Feature", "properties": { "region": "Central Region", "district": "Ntcheu", "market": "Ntcheu Boma", "latitude": -14.82, "longitude": 34.63, "num_commodities": 21, "total_records": 293, "total_spikes": 28, "critical_count": 3, "avg_price": 2400.4333105802048, "latest_date": "2026-03-15T00:00:00", "spike_rate_pct": 9.56 }, "geometry": { "type": "Point", "coordinates": [ 34.63, -14.82 ] } },
{ "type": "Feature", "properties": { "region": "Central Region", "district": "Ntcheu", "market": "Tsangano turnoff", "latitude": -14.82, "longitude": 34.63, "num_commodities": 3, "total_records": 3, "total_spikes": 0, "critical_count": 0, "avg_price": 457.82, "latest_date": "2020-04-15T00:00:00", "spike_rate_pct": 0.0 }, "geometry": { "type": "Point", "coordinates": [ 34.63, -14.82 ] } },
{ "type": "Feature", "properties": { "region": "Central Region", "district": "Ntchisi", "market": "Kamsonga", "latitude": -13.28, "longitude": 33.8, "num_commodities": 19, "total_records": 249, "total_spikes": 23, "critical_count": 2, "avg_price": 2483.1842570281124, "latest_date": "2026-03-15T00:00:00", "spike_rate_pct": 9.24 }, "geometry": { "type": "Point", "coordinates": [ 33.8, -13.28 ] } },
{ "type": "Feature", "properties": { "region": "Central Region", "district": "Ntchisi", "market": "Khuwi", "latitude": -13.43, "longitude": 33.83, "num_commodities": 19, "total_records": 252, "total_spikes": 17, "critical_count": 2, "avg_price": 2800.2340476190475, "latest_date": "2026-03-15T00:00:00", "spike_rate_pct": 6.75 }, "geometry": { "type": "Point", "coordinates": [ 33.83, -13.43 ] } },
{ "type": "Feature", "properties": { "region": "Central Region", "district": "Ntchisi", "market": "Malomo", "latitude": -13.15, "longitude": 33.83, "num_commodities": 20, "total_records": 243, "total_spikes": 21, "critical_count": 3, "avg_price": 2979.7081069958845, "latest_date": "2026-03-15T00:00:00", "spike_rate_pct": 8.64 }, "geometry": { "type": "Point", "coordinates": [ 33.83, -13.15 ] } },
{ "type": "Feature", "properties": { "region": "Central Region", "district": "Ntchisi", "market": "Nsundwe", "latitude": -13.38, "longitude": 33.95, "num_commodities": 21, "total_records": 347, "total_spikes": 30, "critical_count": 2, "avg_price": 2465.7744956772335, "latest_date": "2026-03-15T00:00:00", "spike_rate_pct": 8.65 }, "geometry": { "type": "Point", "coordinates": [ 33.95, -13.38 ] } },
{ "type": "Feature", "properties": { "region": "Central Region", "district": "Ntchisi", "market": "Ntchisi Boma", "latitude": -13.37, "longitude": 33.92, "num_commodities": 21, "total_records": 290, "total_spikes": 26, "critical_count": 2, "avg_price": 2632.7059310344825, "latest_date": "2026-03-15T00:00:00", "spike_rate_pct": 8.97 }, "geometry": { "type": "Point", "coordinates": [ 33.92, -13.37 ] } },
{ "type": "Feature", "properties": { "region": "Central Region", "district": "Salima", "market": "Kamuzu Road", "latitude": -13.77, "longitude": 34.44, "num_commodities": 21, "total_records": 347, "total_spikes": 29, "critical_count": 4, "avg_price": 2478.1058789625358, "latest_date": "2026-03-15T00:00:00", "spike_rate_pct": 8.36 }, "geometry": { "type": "Point", "coordinates": [ 34.44, -13.77 ] } },
{ "type": "Feature", "properties": { "region": "Central Region", "district": "Salima", "market": "Salima", "latitude": -13.78, "longitude": 34.43, "num_commodities": 4, "total_records": 4, "total_spikes": 0, "critical_count": 0, "avg_price": 616.945, "latest_date": "2020-04-15T00:00:00", "spike_rate_pct": 0.0 }, "geometry": { "type": "Point", "coordinates": [ 34.43, -13.78 ] } },
{ "type": "Feature", "properties": { "region": "Central Region", "district": "Salima", "market": "Thavite", "latitude": -13.5, "longitude": 34.26, "num_commodities": 21, "total_records": 313, "total_spikes": 28, "critical_count": 2, "avg_price": 2341.2264536741213, "latest_date": "2026-03-15T00:00:00", "spike_rate_pct": 8.95 }, "geometry": { "type": "Point", "coordinates": [ 34.26, -13.5 ] } },
{ "type": "Feature", "properties": { "region": "Northern Region", "district": "Chitipa", "market": "Chitipa Boma", "latitude": -9.72, "longitude": 33.27, "num_commodities": 20, "total_records": 275, "total_spikes": 31, "critical_count": 3, "avg_price": 2420.9807636363635, "latest_date": "2026-04-15T00:00:00", "spike_rate_pct": 11.27 }, "geometry": { "type": "Point", "coordinates": [ 33.27, -9.72 ] } },
{ "type": "Feature", "properties": { "region": "Northern Region", "district": "Chitipa", "market": "Kameme", "latitude": -9.57, "longitude": 33.09, "num_commodities": 20, "total_records": 202, "total_spikes": 14, "critical_count": 2, "avg_price": 2888.5978712871288, "latest_date": "2026-03-15T00:00:00", "spike_rate_pct": 6.93 }, "geometry": { "type": "Point", "coordinates": [ 33.09, -9.57 ] } },
{ "type": "Feature", "properties": { "region": "Northern Region", "district": "Chitipa", "market": "Nthalire", "latitude": -10.35, "longitude": 33.65, "num_commodities": 19, "total_records": 162, "total_spikes": 8, "critical_count": 2, "avg_price": 2833.4969135802471, "latest_date": "2026-03-15T00:00:00", "spike_rate_pct": 4.94 }, "geometry": { "type": "Point", "coordinates": [ 33.65, -10.35 ] } },
{ "type": "Feature", "properties": { "region": "Northern Region", "district": "Karonga", "market": "Karonga Boma", "latitude": -9.93, "longitude": 33.93, "num_commodities": 21, "total_records": 317, "total_spikes": 34, "critical_count": 4, "avg_price": 2158.6689274447949, "latest_date": "2026-03-15T00:00:00", "spike_rate_pct": 10.73 }, "geometry": { "type": "Point", "coordinates": [ 33.93, -9.93 ] } },
{ "type": "Feature", "properties": { "region": "Northern Region", "district": "Karonga", "market": "Uliwa", "latitude": -10.45, "longitude": 34.21, "num_commodities": 20, "total_records": 285, "total_spikes": 31, "critical_count": 5, "avg_price": 2444.802105263158, "latest_date": "2026-03-15T00:00:00", "spike_rate_pct": 10.88 }, "geometry": { "type": "Point", "coordinates": [ 34.21, -10.45 ] } },
{ "type": "Feature", "properties": { "region": "Northern Region", "district": "Mzimba", "market": "Embangweni", "latitude": -12.17, "longitude": 33.47, "num_commodities": 4, "total_records": 4, "total_spikes": 0, "critical_count": 0, "avg_price": 635.3375, "latest_date": "2020-04-15T00:00:00", "spike_rate_pct": 0.0 }, "geometry": { "type": "Point", "coordinates": [ 33.47, -12.17 ] } },
{ "type": "Feature", "properties": { "region": "Northern Region", "district": "Mzimba", "market": "Euthini", "latitude": -11.45, "longitude": 33.42, "num_commodities": 21, "total_records": 277, "total_spikes": 19, "critical_count": 2, "avg_price": 2776.9257400722022, "latest_date": "2026-03-15T00:00:00", "spike_rate_pct": 6.86 }, "geometry": { "type": "Point", "coordinates": [ 33.42, -11.45 ] } },
{ "type": "Feature", "properties": { "region": "Northern Region", "district": "Mzimba", "market": "Jenda", "latitude": -12.35, "longitude": 33.55, "num_commodities": 20, "total_records": 295, "total_spikes": 32, "critical_count": 5, "avg_price": 2393.8841016949154, "latest_date": "2026-03-15T00:00:00", "spike_rate_pct": 10.85 }, "geometry": { "type": "Point", "coordinates": [ 33.55, -12.35 ] } },
{ "type": "Feature", "properties": { "region": "Northern Region", "district": "Mzimba", "market": "Manyamula", "latitude": -11.94, "longitude": 33.45, "num_commodities": 19, "total_records": 208, "total_spikes": 15, "critical_count": 2, "avg_price": 3044.8847115384615, "latest_date": "2026-03-15T00:00:00", "spike_rate_pct": 7.21 }, "geometry": { "type": "Point", "coordinates": [ 33.45, -11.94 ] } },
{ "type": "Feature", "properties": { "region": "Northern Region", "district": "Mzimba", "market": "Mzimba", "latitude": -11.9, "longitude": 33.6, "num_commodities": 4, "total_records": 32, "total_spikes": 1, "critical_count": 0, "avg_price": 206.2609375, "latest_date": "2022-05-15T00:00:00", "spike_rate_pct": 3.12 }, "geometry": { "type": "Point", "coordinates": [ 33.6, -11.9 ] } },
{ "type": "Feature", "properties": { "region": "Northern Region", "district": "Mzimba", "market": "Mzuzu", "latitude": -11.45, "longitude": 33.92, "num_commodities": 10, "total_records": 122, "total_spikes": 3, "critical_count": 0, "avg_price": 541.26286885245906, "latest_date": "2022-05-15T00:00:00", "spike_rate_pct": 2.46 }, "geometry": { "type": "Point", "coordinates": [ 33.92, -11.45 ] } },
{ "type": "Feature", "properties": { "region": "Northern Region", "district": "Mzuzu City", "market": "Vigwagwa", "latitude": -11.44, "longitude": 34.01, "num_commodities": 19, "total_records": 202, "total_spikes": 15, "critical_count": 0, "avg_price": 3300.6651485148514, "latest_date": "2026-03-15T00:00:00", "spike_rate_pct": 7.43 }, "geometry": { "type": "Point", "coordinates": [ 34.01, -11.44 ] } },
{ "type": "Feature", "properties": { "region": "Northern Region", "district": "Nkhata Bay", "market": "Chintheche", "latitude": -11.83, "longitude": 34.17, "num_commodities": 19, "total_records": 213, "total_spikes": 15, "critical_count": 3, "avg_price": 3297.7520657276991, "latest_date": "2026-03-15T00:00:00", "spike_rate_pct": 7.04 }, "geometry": { "type": "Point", "coordinates": [ 34.17, -11.83 ] } },
{ "type": "Feature", "properties": { "region": "Northern Region", "district": "Nkhata Bay", "market": "Mpamba", "latitude": -11.55, "longitude": 34.19, "num_commodities": 19, "total_records": 187, "total_spikes": 12, "critical_count": 0, "avg_price": 3425.2880748663101, "latest_date": "2026-03-15T00:00:00", "spike_rate_pct": 6.42 }, "geometry": { "type": "Point", "coordinates": [ 34.19, -11.55 ] } },
{ "type": "Feature", "properties": { "region": "Northern Region", "district": "Nkhata Bay", "market": "Nkhatabay Boma", "latitude": -11.61, "longitude": 34.3, "num_commodities": 19, "total_records": 190, "total_spikes": 16, "critical_count": 1, "avg_price": 3642.8497894736838, "latest_date": "2026-03-15T00:00:00", "spike_rate_pct": 8.42 }, "geometry": { "type": "Point", "coordinates": [ 34.3, -11.61 ] } },
{ "type": "Feature", "properties": { "region": "Northern Region", "district": "Rumphi", "market": "Bolero", "latitude": -10.98, "longitude": 33.74, "num_commodities": 20, "total_records": 248, "total_spikes": 29, "critical_count": 3, "avg_price": 2852.8632258064513, "latest_date": "2026-04-15T00:00:00", "spike_rate_pct": 11.69 }, "geometry": { "type": "Point", "coordinates": [ 33.74, -10.98 ] } },
{ "type": "Feature", "properties": { "region": "Northern Region", "district": "Rumphi", "market": "Rumphi Boma", "latitude": -11.02, "longitude": 33.87, "num_commodities": 21, "total_records": 281, "total_spikes": 30, "critical_count": 3, "avg_price": 2611.6619572953737, "latest_date": "2026-03-15T00:00:00", "spike_rate_pct": 10.68 }, "geometry": { "type": "Point", "coordinates": [ 33.87, -11.02 ] } },
{ "type": "Feature", "properties": { "region": "Southern Region", "district": "Balaka", "market": "Balaka Boma", "latitude": -14.99, "longitude": 34.96, "num_commodities": 21, "total_records": 285, "total_spikes": 20, "critical_count": 3, "avg_price": 2348.4705964912282, "latest_date": "2026-03-15T00:00:00", "spike_rate_pct": 7.02 }, "geometry": { "type": "Point", "coordinates": [ 34.96, -14.99 ] } },
{ "type": "Feature", "properties": { "region": "Southern Region", "district": "Balaka", "market": "Mbela", "latitude": -14.91, "longitude": 35.06, "num_commodities": 20, "total_records": 229, "total_spikes": 19, "critical_count": 2, "avg_price": 2892.1315283842796, "latest_date": "2026-03-15T00:00:00", "spike_rate_pct": 8.3 }, "geometry": { "type": "Point", "coordinates": [ 35.06, -14.91 ] } },
{ "type": "Feature", "properties": { "region": "Southern Region", "district": "Balaka", "market": "Phalula", "latitude": -15.22, "longitude": 34.89, "num_commodities": 20, "total_records": 231, "total_spikes": 16, "critical_count": 2, "avg_price": 2750.7113419913417, "latest_date": "2026-03-15T00:00:00", "spike_rate_pct": 6.93 }, "geometry": { "type": "Point", "coordinates": [ 34.89, -15.22 ] } },
{ "type": "Feature", "properties": { "region": "Southern Region", "district": "Balaka", "market": "Ulongwe", "latitude": -14.85, "longitude": 35.17, "num_commodities": 21, "total_records": 277, "total_spikes": 32, "critical_count": 2, "avg_price": 2677.5420216606499, "latest_date": "2026-03-15T00:00:00", "spike_rate_pct": 11.55 }, "geometry": { "type": "Point", "coordinates": [ 35.17, -14.85 ] } },
{ "type": "Feature", "properties": { "region": "Southern Region", "district": "Blantyre", "market": "Chikuli", "latitude": -15.67, "longitude": 34.88, "num_commodities": 20, "total_records": 144, "total_spikes": 9, "critical_count": 0, "avg_price": 3134.6817361111111, "latest_date": "2025-09-15T00:00:00", "spike_rate_pct": 6.25 }, "geometry": { "type": "Point", "coordinates": [ 34.88, -15.67 ] } },
{ "type": "Feature", "properties": { "region": "Southern Region", "district": "Blantyre", "market": "Lirangwe", "latitude": -15.53, "longitude": 35.02, "num_commodities": 21, "total_records": 367, "total_spikes": 31, "critical_count": 3, "avg_price": 2605.1289373297, "latest_date": "2026-04-15T00:00:00", "spike_rate_pct": 8.45 }, "geometry": { "type": "Point", "coordinates": [ 35.02, -15.53 ] } },
{ "type": "Feature", "properties": { "region": "Southern Region", "district": "Blantyre", "market": "Lunzu", "latitude": -15.65, "longitude": 35.02, "num_commodities": 21, "total_records": 385, "total_spikes": 45, "critical_count": 4, "avg_price": 2474.2884155844158, "latest_date": "2026-04-15T00:00:00", "spike_rate_pct": 11.69 }, "geometry": { "type": "Point", "coordinates": [ 35.02, -15.65 ] } },
{ "type": "Feature", "properties": { "region": "Southern Region", "district": "Blantyre City", "market": "Bvumbwe", "latitude": -15.93, "longitude": 35.08, "num_commodities": 21, "total_records": 347, "total_spikes": 40, "critical_count": 1, "avg_price": 2445.4977521613832, "latest_date": "2026-04-15T00:00:00", "spike_rate_pct": 11.53 }, "geometry": { "type": "Point", "coordinates": [ 35.08, -15.93 ] } },
{ "type": "Feature", "properties": { "region": "Southern Region", "district": "Blantyre City", "market": "Limbe", "latitude": -15.82, "longitude": 35.05, "num_commodities": 4, "total_records": 4, "total_spikes": 0, "critical_count": 0, "avg_price": 647.735, "latest_date": "2020-04-15T00:00:00", "spike_rate_pct": 0.0 }, "geometry": { "type": "Point", "coordinates": [ 35.05, -15.82 ] } },
{ "type": "Feature", "properties": { "region": "Southern Region", "district": "Chikwawa", "market": "Dyelatu", "latitude": -16.04, "longitude": 34.8, "num_commodities": 21, "total_records": 332, "total_spikes": 32, "critical_count": 3, "avg_price": 2400.4584036144574, "latest_date": "2026-04-15T00:00:00", "spike_rate_pct": 9.64 }, "geometry": { "type": "Point", "coordinates": [ 34.8, -16.04 ] } },
{ "type": "Feature", "properties": { "region": "Southern Region", "district": "Chikwawa", "market": "Nchalo", "latitude": -16.27, "longitude": 34.87, "num_commodities": 21, "total_records": 359, "total_spikes": 38, "critical_count": 2, "avg_price": 2516.9113370473538, "latest_date": "2026-04-15T00:00:00", "spike_rate_pct": 10.58 }, "geometry": { "type": "Point", "coordinates": [ 34.87, -16.27 ] } },
{ "type": "Feature", "properties": { "region": "Southern Region", "district": "Chikwawa", "market": "Nkhate", "latitude": -16.15, "longitude": 34.96, "num_commodities": 21, "total_records": 316, "total_spikes": 44, "critical_count": 2, "avg_price": 2034.4248101265823, "latest_date": "2026-03-15T00:00:00", "spike_rate_pct": 13.92 }, "geometry": { "type": "Point", "coordinates": [ 34.96, -16.15 ] } },
{ "type": "Feature", "properties": { "region": "Southern Region", "district": "Chikwawa", "market": "Tomali", "latitude": -16.18, "longitude": 34.77, "num_commodities": 21, "total_records": 330, "total_spikes": 38, "critical_count": 2, "avg_price": 2291.5105454545455, "latest_date": "2026-04-15T00:00:00", "spike_rate_pct": 11.52 }, "geometry": { "type": "Point", "coordinates": [ 34.77, -16.18 ] } },
{ "type": "Feature", "properties": { "region": "Southern Region", "district": "Chiradzulu", "market": "Chiradzulu Boma", "latitude": -15.71, "longitude": 35.18, "num_commodities": 20, "total_records": 255, "total_spikes": 11, "critical_count": 1, "avg_price": 3252.1217647058825, "latest_date": "2026-04-15T00:00:00", "spike_rate_pct": 4.31 }, "geometry": { "type": "Point", "coordinates": [ 35.18, -15.71 ] } },
{ "type": "Feature", "properties": { "region": "Southern Region", "district": "Machinga", "market": "Chikweo", "latitude": -14.77, "longitude": 35.67, "num_commodities": 21, "total_records": 329, "total_spikes": 37, "critical_count": 1, "avg_price": 2273.1010638297871, "latest_date": "2026-04-15T00:00:00", "spike_rate_pct": 11.25 }, "geometry": { "type": "Point", "coordinates": [ 35.67, -14.77 ] } },
{ "type": "Feature", "properties": { "region": "Southern Region", "district": "Machinga", "market": "Liwonde", "latitude": -15.07, "longitude": 35.23, "num_commodities": 20, "total_records": 292, "total_spikes": 25, "critical_count": 2, "avg_price": 2607.3580821917808, "latest_date": "2026-04-15T00:00:00", "spike_rate_pct": 8.56 }, "geometry": { "type": "Point", "coordinates": [ 35.23, -15.07 ] } },
{ "type": "Feature", "properties": { "region": "Southern Region", "district": "Machinga", "market": "Mangamba", "latitude": -14.79, "longitude": 35.44, "num_commodities": 21, "total_records": 348, "total_spikes": 36, "critical_count": 2, "avg_price": 2457.3544827586206, "latest_date": "2026-04-15T00:00:00", "spike_rate_pct": 10.34 }, "geometry": { "type": "Point", "coordinates": [ 35.44, -14.79 ] } },
{ "type": "Feature", "properties": { "region": "Southern Region", "district": "Machinga", "market": "Mangochi Turn Off", "latitude": -15.04, "longitude": 35.19, "num_commodities": 20, "total_records": 201, "total_spikes": 12, "critical_count": 2, "avg_price": 2789.5067661691542, "latest_date": "2026-03-15T00:00:00", "spike_rate_pct": 5.97 }, "geometry": { "type": "Point", "coordinates": [ 35.19, -15.04 ] } },
{ "type": "Feature", "properties": { "region": "Southern Region", "district": "Machinga", "market": "Mbonechela", "latitude": -14.89, "longitude": 35.48, "num_commodities": 21, "total_records": 341, "total_spikes": 34, "critical_count": 3, "avg_price": 2201.655806451613, "latest_date": "2026-04-15T00:00:00", "spike_rate_pct": 9.97 }, "geometry": { "type": "Point", "coordinates": [ 35.48, -14.89 ] } },
{ "type": "Feature", "properties": { "region": "Southern Region", "district": "Machinga", "market": "Mpita", "latitude": -15.19, "longitude": 35.47, "num_commodities": 21, "total_records": 330, "total_spikes": 37, "critical_count": 5, "avg_price": 2302.4447272727275, "latest_date": "2026-04-15T00:00:00", "spike_rate_pct": 11.21 }, "geometry": { "type": "Point", "coordinates": [ 35.47, -15.19 ] } },
{ "type": "Feature", "properties": { "region": "Southern Region", "district": "Machinga", "market": "Nayuchi", "latitude": -14.98, "longitude": 35.87, "num_commodities": 21, "total_records": 359, "total_spikes": 42, "critical_count": 7, "avg_price": 2140.721364902507, "latest_date": "2026-04-15T00:00:00", "spike_rate_pct": 11.7 }, "geometry": { "type": "Point", "coordinates": [ 35.87, -14.98 ] } },
{ "type": "Feature", "properties": { "region": "Southern Region", "district": "Machinga", "market": "Nsanama", "latitude": -15.0, "longitude": 35.49, "num_commodities": 20, "total_records": 364, "total_spikes": 40, "critical_count": 2, "avg_price": 2343.2423351648349, "latest_date": "2026-04-15T00:00:00", "spike_rate_pct": 10.99 }, "geometry": { "type": "Point", "coordinates": [ 35.49, -15.0 ] } },
{ "type": "Feature", "properties": { "region": "Southern Region", "district": "Machinga", "market": "Nserema", "latitude": -14.72, "longitude": 35.55, "num_commodities": 21, "total_records": 309, "total_spikes": 31, "critical_count": 1, "avg_price": 2630.2349514563107, "latest_date": "2026-03-15T00:00:00", "spike_rate_pct": 10.03 }, "geometry": { "type": "Point", "coordinates": [ 35.55, -14.72 ] } },
{ "type": "Feature", "properties": { "region": "Southern Region", "district": "Machinga", "market": "Ntaja", "latitude": -14.87, "longitude": 35.53, "num_commodities": 20, "total_records": 245, "total_spikes": 13, "critical_count": 0, "avg_price": 3107.5792653061226, "latest_date": "2026-03-15T00:00:00", "spike_rate_pct": 5.31 }, "geometry": { "type": "Point", "coordinates": [ 35.53, -14.87 ] } },
{ "type": "Feature", "properties": { "region": "Southern Region", "district": "Mangochi", "market": "Chiponde", "latitude": -14.37, "longitude": 35.6, "num_commodities": 20, "total_records": 223, "total_spikes": 13, "critical_count": 0, "avg_price": 3272.3149775784755, "latest_date": "2026-03-15T00:00:00", "spike_rate_pct": 5.83 }, "geometry": { "type": "Point", "coordinates": [ 35.6, -14.37 ] } },
{ "type": "Feature", "properties": { "region": "Southern Region", "district": "Mangochi", "market": "Makanjila", "latitude": -13.71, "longitude": 35.04, "num_commodities": 1, "total_records": 3, "total_spikes": 0, "critical_count": 0, "avg_price": 153.33333333333334, "latest_date": "2022-01-15T00:00:00", "spike_rate_pct": 0.0 }, "geometry": { "type": "Point", "coordinates": [ 35.04, -13.71 ] } },
{ "type": "Feature", "properties": { "region": "Southern Region", "district": "Mangochi", "market": "Makanjira", "latitude": -13.71, "longitude": 35.04, "num_commodities": 20, "total_records": 248, "total_spikes": 27, "critical_count": 2, "avg_price": 2361.8070564516129, "latest_date": "2026-03-15T00:00:00", "spike_rate_pct": 10.89 }, "geometry": { "type": "Point", "coordinates": [ 35.04, -13.71 ] } },
{ "type": "Feature", "properties": { "region": "Southern Region", "district": "Mangochi", "market": "Mangochi Boma", "latitude": -14.48, "longitude": 35.26, "num_commodities": 21, "total_records": 319, "total_spikes": 29, "critical_count": 2, "avg_price": 2284.7135736677114, "latest_date": "2026-03-15T00:00:00", "spike_rate_pct": 9.09 }, "geometry": { "type": "Point", "coordinates": [ 35.26, -14.48 ] } },
{ "type": "Feature", "properties": { "region": "Southern Region", "district": "Mangochi", "market": "Monkey Bay", "latitude": -14.09, "longitude": 34.91, "num_commodities": 20, "total_records": 241, "total_spikes": 12, "critical_count": 0, "avg_price": 3390.1594190871369, "latest_date": "2026-03-15T00:00:00", "spike_rate_pct": 4.98 }, "geometry": { "type": "Point", "coordinates": [ 34.91, -14.09 ] } },
{ "type": "Feature", "properties": { "region": "Southern Region", "district": "Mangochi", "market": "Namwera", "latitude": -14.36, "longitude": 35.5, "num_commodities": 1, "total_records": 1, "total_spikes": 0, "critical_count": 0, "avg_price": 171.49, "latest_date": "2020-04-15T00:00:00", "spike_rate_pct": 0.0 }, "geometry": { "type": "Point", "coordinates": [ 35.5, -14.36 ] } },
{ "type": "Feature", "properties": { "region": "Southern Region", "district": "Mulanje", "market": "Chinakanaka", "latitude": -15.99, "longitude": 35.4, "num_commodities": 21, "total_records": 355, "total_spikes": 36, "critical_count": 2, "avg_price": 2301.9097183098588, "latest_date": "2026-04-15T00:00:00", "spike_rate_pct": 10.14 }, "geometry": { "type": "Point", "coordinates": [ 35.4, -15.99 ] } },
{ "type": "Feature", "properties": { "region": "Southern Region", "district": "Mulanje", "market": "Chitakale", "latitude": -16.01, "longitude": 35.49, "num_commodities": 21, "total_records": 350, "total_spikes": 40, "critical_count": 3, "avg_price": 2321.1532, "latest_date": "2026-04-15T00:00:00", "spike_rate_pct": 11.43 }, "geometry": { "type": "Point", "coordinates": [ 35.49, -16.01 ] } },
{ "type": "Feature", "properties": { "region": "Southern Region", "district": "Mulanje", "market": "Limbuli", "latitude": -16.07, "longitude": 35.71, "num_commodities": 21, "total_records": 334, "total_spikes": 33, "critical_count": 2, "avg_price": 2300.7355988023951, "latest_date": "2026-04-15T00:00:00", "spike_rate_pct": 9.88 }, "geometry": { "type": "Point", "coordinates": [ 35.71, -16.07 ] } },
{ "type": "Feature", "properties": { "region": "Southern Region", "district": "Mulanje", "market": "Mulanje Boma", "latitude": -16.03, "longitude": 35.5, "num_commodities": 21, "total_records": 330, "total_spikes": 41, "critical_count": 2, "avg_price": 2467.4168484848487, "latest_date": "2026-04-15T00:00:00", "spike_rate_pct": 12.42 }, "geometry": { "type": "Point", "coordinates": [ 35.5, -16.03 ] } },
{ "type": "Feature", "properties": { "region": "Southern Region", "district": "Mulanje", "market": "Muloza", "latitude": -16.08, "longitude": 35.73, "num_commodities": 21, "total_records": 338, "total_spikes": 36, "critical_count": 4, "avg_price": 2244.538343195266, "latest_date": "2026-04-15T00:00:00", "spike_rate_pct": 10.65 }, "geometry": { "type": "Point", "coordinates": [ 35.73, -16.08 ] } },
{ "type": "Feature", "properties": { "region": "Southern Region", "district": "Mwanza", "market": "Mwanza Boma", "latitude": -15.6, "longitude": 34.52, "num_commodities": 20, "total_records": 305, "total_spikes": 29, "critical_count": 4, "avg_price": 2606.2780327868854, "latest_date": "2026-03-15T00:00:00", "spike_rate_pct": 9.51 }, "geometry": { "type": "Point", "coordinates": [ 34.52, -15.6 ] } },
{ "type": "Feature", "properties": { "region": "Southern Region", "district": "Neno", "market": "Neno Boma", "latitude": -15.4, "longitude": 34.65, "num_commodities": 21, "total_records": 298, "total_spikes": 29, "critical_count": 4, "avg_price": 2491.7599664429531, "latest_date": "2026-04-15T00:00:00", "spike_rate_pct": 9.73 }, "geometry": { "type": "Point", "coordinates": [ 34.65, -15.4 ] } },
{ "type": "Feature", "properties": { "region": "Southern Region", "district": "Nsanje", "market": "Bangula", "latitude": -16.57, "longitude": 35.12, "num_commodities": 21, "total_records": 346, "total_spikes": 36, "critical_count": 2, "avg_price": 2289.3773121387285, "latest_date": "2026-04-15T00:00:00", "spike_rate_pct": 10.4 }, "geometry": { "type": "Point", "coordinates": [ 35.12, -16.57 ] } },
{ "type": "Feature", "properties": { "region": "Southern Region", "district": "Nsanje", "market": "Makhanga", "latitude": -16.52, "longitude": 35.16, "num_commodities": 20, "total_records": 169, "total_spikes": 12, "critical_count": 0, "avg_price": 3034.794556213018, "latest_date": "2026-03-15T00:00:00", "spike_rate_pct": 7.1 }, "geometry": { "type": "Point", "coordinates": [ 35.16, -16.52 ] } },
{ "type": "Feature", "properties": { "region": "Southern Region", "district": "Nsanje", "market": "Marka", "latitude": -17.12, "longitude": 35.23, "num_commodities": 20, "total_records": 288, "total_spikes": 24, "critical_count": 2, "avg_price": 2143.7630208333335, "latest_date": "2026-04-15T00:00:00", "spike_rate_pct": 8.33 }, "geometry": { "type": "Point", "coordinates": [ 35.23, -17.12 ] } },
{ "type": "Feature", "properties": { "region": "Southern Region", "district": "Nsanje", "market": "Mtowe", "latitude": -17.08, "longitude": 35.22, "num_commodities": 19, "total_records": 241, "total_spikes": 20, "critical_count": 2, "avg_price": 2412.3834854771785, "latest_date": "2026-03-15T00:00:00", "spike_rate_pct": 8.3 }, "geometry": { "type": "Point", "coordinates": [ 35.22, -17.08 ] } },
{ "type": "Feature", "properties": { "region": "Southern Region", "district": "Nsanje", "market": "Ngabu", "latitude": -16.47, "longitude": 34.87, "num_commodities": 21, "total_records": 344, "total_spikes": 36, "critical_count": 2, "avg_price": 2351.3407267441858, "latest_date": "2026-04-15T00:00:00", "spike_rate_pct": 10.47 }, "geometry": { "type": "Point", "coordinates": [ 34.87, -16.47 ] } },
{ "type": "Feature", "properties": { "region": "Southern Region", "district": "Nsanje", "market": "Nsanje Boma", "latitude": -16.93, "longitude": 35.26, "num_commodities": 21, "total_records": 326, "total_spikes": 33, "critical_count": 2, "avg_price": 2319.7335276073618, "latest_date": "2026-04-15T00:00:00", "spike_rate_pct": 10.12 }, "geometry": { "type": "Point", "coordinates": [ 35.26, -16.93 ] } },
{ "type": "Feature", "properties": { "region": "Southern Region", "district": "Nsanje", "market": "Sorgin", "latitude": -16.54, "longitude": 35.01, "num_commodities": 21, "total_records": 299, "total_spikes": 28, "critical_count": 1, "avg_price": 2420.0273913043475, "latest_date": "2026-04-15T00:00:00", "spike_rate_pct": 9.36 }, "geometry": { "type": "Point", "coordinates": [ 35.01, -16.54 ] } },
{ "type": "Feature", "properties": { "region": "Southern Region", "district": "Phalombe", "market": "Chilinga", "latitude": -15.78, "longitude": 35.77, "num_commodities": 21, "total_records": 367, "total_spikes": 31, "critical_count": 5, "avg_price": 2323.5013351498637, "latest_date": "2026-04-15T00:00:00", "spike_rate_pct": 8.45 }, "geometry": { "type": "Point", "coordinates": [ 35.77, -15.78 ] } },
{ "type": "Feature", "properties": { "region": "Southern Region", "district": "Phalombe", "market": "Migowi", "latitude": -15.72, "longitude": 35.68, "num_commodities": 21, "total_records": 368, "total_spikes": 34, "critical_count": 2, "avg_price": 2372.782527173913, "latest_date": "2026-04-15T00:00:00", "spike_rate_pct": 9.24 }, "geometry": { "type": "Point", "coordinates": [ 35.68, -15.72 ] } },
{ "type": "Feature", "properties": { "region": "Southern Region", "district": "Phalombe", "market": "Phalombe Boma", "latitude": -15.81, "longitude": 35.65, "num_commodities": 21, "total_records": 362, "total_spikes": 39, "critical_count": 1, "avg_price": 2521.7730110497237, "latest_date": "2026-03-15T00:00:00", "spike_rate_pct": 10.77 }, "geometry": { "type": "Point", "coordinates": [ 35.65, -15.81 ] } },
{ "type": "Feature", "properties": { "region": "Southern Region", "district": "Phalombe", "market": "Phaloni", "latitude": -15.62, "longitude": 35.76, "num_commodities": 20, "total_records": 254, "total_spikes": 10, "critical_count": 0, "avg_price": 3134.0582283464569, "latest_date": "2026-04-15T00:00:00", "spike_rate_pct": 3.94 }, "geometry": { "type": "Point", "coordinates": [ 35.76, -15.62 ] } },
{ "type": "Feature", "properties": { "region": "Southern Region", "district": "Thyolo", "market": "Luchenza", "latitude": -16.01, "longitude": 35.31, "num_commodities": 5, "total_records": 94, "total_spikes": 12, "critical_count": 0, "avg_price": 1600.1903191489364, "latest_date": "2025-03-15T00:00:00", "spike_rate_pct": 12.77 }, "geometry": { "type": "Point", "coordinates": [ 35.31, -16.01 ] } },
{ "type": "Feature", "properties": { "region": "Southern Region", "district": "Thyolo", "market": "Luncheza", "latitude": -16.02, "longitude": 35.31, "num_commodities": 21, "total_records": 280, "total_spikes": 25, "critical_count": 1, "avg_price": 2682.982607142857, "latest_date": "2026-04-15T00:00:00", "spike_rate_pct": 8.93 }, "geometry": { "type": "Point", "coordinates": [ 35.31, -16.02 ] } },
{ "type": "Feature", "properties": { "region": "Southern Region", "district": "Thyolo", "market": "Thekerani", "latitude": -16.32, "longitude": 35.2, "num_commodities": 21, "total_records": 344, "total_spikes": 38, "critical_count": 3, "avg_price": 2513.4637209302327, "latest_date": "2026-04-15T00:00:00", "spike_rate_pct": 11.05 }, "geometry": { "type": "Point", "coordinates": [ 35.2, -16.32 ] } },
{ "type": "Feature", "properties": { "region": "Southern Region", "district": "Thyolo", "market": "Thyolo Boma", "latitude": -16.07, "longitude": 35.15, "num_commodities": 21, "total_records": 334, "total_spikes": 31, "critical_count": 1, "avg_price": 2413.6859880239522, "latest_date": "2026-03-15T00:00:00", "spike_rate_pct": 9.28 }, "geometry": { "type": "Point", "coordinates": [ 35.15, -16.07 ] } },
{ "type": "Feature", "properties": { "region": "Southern Region", "district": "Zomba", "market": "Chinamwali", "latitude": -15.38, "longitude": 35.36, "num_commodities": 20, "total_records": 246, "total_spikes": 18, "critical_count": 3, "avg_price": 3131.1101626016261, "latest_date": "2026-04-15T00:00:00", "spike_rate_pct": 7.32 }, "geometry": { "type": "Point", "coordinates": [ 35.36, -15.38 ] } },
{ "type": "Feature", "properties": { "region": "Southern Region", "district": "Zomba", "market": "Jali", "latitude": -15.5, "longitude": 35.47, "num_commodities": 21, "total_records": 351, "total_spikes": 29, "critical_count": 4, "avg_price": 2421.6679487179485, "latest_date": "2026-04-15T00:00:00", "spike_rate_pct": 8.26 }, "geometry": { "type": "Point", "coordinates": [ 35.47, -15.5 ] } },
{ "type": "Feature", "properties": { "region": "Southern Region", "district": "Zomba", "market": "Mayaka", "latitude": -15.58, "longitude": 35.37, "num_commodities": 21, "total_records": 331, "total_spikes": 33, "critical_count": 4, "avg_price": 2386.9344108761329, "latest_date": "2026-04-15T00:00:00", "spike_rate_pct": 9.97 }, "geometry": { "type": "Point", "coordinates": [ 35.37, -15.58 ] } },
{ "type": "Feature", "properties": { "region": "Southern Region", "district": "Zomba", "market": "Mulomba", "latitude": -15.76, "longitude": 35.52, "num_commodities": 21, "total_records": 361, "total_spikes": 34, "critical_count": 3, "avg_price": 2281.9417174515233, "latest_date": "2026-04-15T00:00:00", "spike_rate_pct": 9.42 }, "geometry": { "type": "Point", "coordinates": [ 35.52, -15.76 ] } },
{ "type": "Feature", "properties": { "region": "Southern Region", "district": "Zomba", "market": "Songani", "latitude": -15.32, "longitude": 35.39, "num_commodities": 20, "total_records": 265, "total_spikes": 19, "critical_count": 2, "avg_price": 2672.3718113207547, "latest_date": "2026-03-15T00:00:00", "spike_rate_pct": 7.17 }, "geometry": { "type": "Point", "coordinates": [ 35.39, -15.32 ] } },
{ "type": "Feature", "properties": { "region": "Southern Region", "district": "Zomba", "market": "Thondwe", "latitude": -15.49, "longitude": 35.24, "num_commodities": 21, "total_records": 314, "total_spikes": 33, "critical_count": 5, "avg_price": 2332.1059554140129, "latest_date": "2026-03-15T00:00:00", "spike_rate_pct": 10.51 }, "geometry": { "type": "Point", "coordinates": [ 35.24, -15.49 ] } }
]
}
